{"fetched_at":"2026-07-06T18:35:12.836Z","source":"https://celestrak.org/NORAD/elements/gp.php?GROUP=kuiper&FORMAT=JSON","constellation":"kuiper","records":[{"OBJECT_NAME":"KUIPER-00438","OBJECT_ID":"2026-098X","EPOCH":"2026-07-05T14:00:38.205792","CLASSIFICATION_TYPE":"U","MEAN_MOTION":15.30852104,"ECCENTRICITY":0.00066885,"INCLINATION":51.8751,"RA_OF_ASC_NODE":339.7778,"ARG_OF_PERICENTER":247.1194,"MEAN_ANOMALY":112.9084,"EPHEMERIS_TYPE":0,"NORAD_CAT_ID":68940,"ELEMENT_SET_NO":999,"REV_AT_EPOCH":1016,"BSTAR":-0.00039445908,"MEAN_MOTION_DOT":-0.00012288,"MEAN_MOTION_DDOT":0},{"OBJECT_NAME":"KUIPER-00439","OBJECT_ID":"2026-098Y","EPOCH":"2026-07-05T19:09:21.144960","CLASSIFICATION_TYPE":"U","MEAN_MOTION":15.32186966,"ECCENTRICITY":0.00055623,"INCLINATION":51.8797,"RA_OF_ASC_NODE":338.9753,"ARG_OF_PERICENTER":236.1857,"MEAN_ANOMALY":123.8599,"EPHEMERIS_TYPE":0,"NORAD_CAT_ID":68941,"ELEMENT_SET_NO":999,"REV_AT_EPOCH":1019,"BSTAR":0.00071498747,"MEAN_MOTION_DOT":0.00022254,"MEAN_MOTION_DDOT":0},{"OBJECT_NAME":"KUIPER-00440","OBJECT_ID":"2026-098Z","EPOCH":"2026-07-05T20:02:51.473472","CLASSIFICATION_TYPE":"U","MEAN_MOTION":15.31603006,"ECCENTRICITY":0.0003312,"INCLINATION":51.8791,"RA_OF_ASC_NODE":338.4872,"ARG_OF_PERICENTER":253.6805,"MEAN_ANOMALY":106.3815,"EPHEMERIS_TYPE":0,"NORAD_CAT_ID":68942,"ELEMENT_SET_NO":999,"REV_AT_EPOCH":1020,"BSTAR":0.00091514885,"MEAN_MOTION_DOT":0.00028082,"MEAN_MOTION_DDOT":0},{"OBJECT_NAME":"KUIPER-00442","OBJECT_ID":"2026-098AA","EPOCH":"2026-07-05T14:38:29.240160","CLASSIFICATION_TYPE":"U","MEAN_MOTION":15.34440255,"ECCENTRICITY":0.00037722,"INCLINATION":51.88,"RA_OF_ASC_NODE":339.2404,"ARG_OF_PERICENTER":223.0685,"MEAN_ANOMALY":137.0006,"EPHEMERIS_TYPE":0,"NORAD_CAT_ID":68943,"ELEMENT_SET_NO":999,"REV_AT_EPOCH":1017,"BSTAR":0.0007162153,"MEAN_MOTION_DOT":0.00023955,"MEAN_MOTION_DDOT":0},{"OBJECT_NAME":"KUIPER-00446","OBJECT_ID":"2026-098AB","EPOCH":"2026-07-06T00:12:37.200960","CLASSIFICATION_TYPE":"U","MEAN_MOTION":15.32637572,"ECCENTRICITY":0.00054802,"INCLINATION":51.8767,"RA_OF_ASC_NODE":337.383,"ARG_OF_PERICENTER":207.8587,"MEAN_ANOMALY":152.2105,"EPHEMERIS_TYPE":0,"NORAD_CAT_ID":68944,"ELEMENT_SET_NO":999,"REV_AT_EPOCH":1023,"BSTAR":-0.0018027517,"MEAN_MOTION_DOT":-0.00057625,"MEAN_MOTION_DDOT":0},{"OBJECT_NAME":"KUIPER-00451","OBJECT_ID":"2026-098AC","EPOCH":"2026-07-06T06:00:04.000320","CLASSIFICATION_TYPE":"U","MEAN_MOTION":15.01038284,"ECCENTRICITY":0.00095321,"INCLINATION":51.8898,"RA_OF_ASC_NODE":339.7712,"ARG_OF_PERICENTER":222.767,"MEAN_ANOMALY":31.5573,"EPHEMERIS_TYPE":0,"NORAD_CAT_ID":68945,"ELEMENT_SET_NO":999,"REV_AT_EPOCH":574,"BSTAR":-0.001340114,"MEAN_MOTION_DOT":-0.0001756,"MEAN_MOTION_DDOT":0},{"OBJECT_NAME":"KUIPER-00452","OBJECT_ID":"2026-098AD","EPOCH":"2026-07-04T21:41:26.005344","CLASSIFICATION_TYPE":"U","MEAN_MOTION":15.35970576,"ECCENTRICITY":0.000269,"INCLINATION":51.8764,"RA_OF_ASC_NODE":341.996,"ARG_OF_PERICENTER":219.1737,"MEAN_ANOMALY":140.9055,"EPHEMERIS_TYPE":0,"NORAD_CAT_ID":68946,"ELEMENT_SET_NO":999,"REV_AT_EPOCH":1007,"BSTAR":0.0015785,"MEAN_MOTION_DOT":0.00056168,"MEAN_MOTION_DDOT":0},{"OBJECT_NAME":"KUIPER-00453","OBJECT_ID":"2026-098AE","EPOCH":"2026-07-05T14:03:17.246592","CLASSIFICATION_TYPE":"U","MEAN_MOTION":15.37233353,"ECCENTRICITY":0.00008881,"INCLINATION":51.8756,"RA_OF_ASC_NODE":338.3282,"ARG_OF_PERICENTER":311.778,"MEAN_ANOMALY":48.3131,"EPHEMERIS_TYPE":0,"NORAD_CAT_ID":68947,"ELEMENT_SET_NO":999,"REV_AT_EPOCH":1018,"BSTAR":0.0017818418,"MEAN_MOTION_DOT":0.00066184,"MEAN_MOTION_DDOT":0},{"OBJECT_NAME":"KUIPER-00454","OBJECT_ID":"2026-098AF","EPOCH":"2026-07-06T06:00:04.000320","CLASSIFICATION_TYPE":"U","MEAN_MOTION":14.99136456,"ECCENTRICITY":0.00128772,"INCLINATION":51.8944,"RA_OF_ASC_NODE":340.493,"ARG_OF_PERICENTER":206.78,"MEAN_ANOMALY":105.4605,"EPHEMERIS_TYPE":0,"NORAD_CAT_ID":68948,"ELEMENT_SET_NO":999,"REV_AT_EPOCH":459,"BSTAR":-0.15538608,"MEAN_MOTION_DOT":-0.01745796,"MEAN_MOTION_DDOT":0},{"OBJECT_NAME":"KUIPER-00455","OBJECT_ID":"2026-098AG","EPOCH":"2026-07-06T06:00:04.000320","CLASSIFICATION_TYPE":"U","MEAN_MOTION":15.03078426,"ECCENTRICITY":0.00174669,"INCLINATION":51.8932,"RA_OF_ASC_NODE":339.9035,"ARG_OF_PERICENTER":209.2113,"MEAN_ANOMALY":72.1419,"EPHEMERIS_TYPE":0,"NORAD_CAT_ID":68949,"ELEMENT_SET_NO":999,"REV_AT_EPOCH":514,"BSTAR":-0.022801764,"MEAN_MOTION_DOT":-0.00299641,"MEAN_MOTION_DDOT":0},{"OBJECT_NAME":"KUIPER-00458","OBJECT_ID":"2026-098AH","EPOCH":"2026-07-05T22:26:09.112416","CLASSIFICATION_TYPE":"U","MEAN_MOTION":15.36685655,"ECCENTRICITY":0.00029945,"INCLINATION":51.8792,"RA_OF_ASC_NODE":336.9232,"ARG_OF_PERICENTER":253.0069,"MEAN_ANOMALY":107.059,"EPHEMERIS_TYPE":0,"NORAD_CAT_ID":68950,"ELEMENT_SET_NO":999,"REV_AT_EPOCH":1023,"BSTAR":0.00081942885,"MEAN_MOTION_DOT":0.00029548,"MEAN_MOTION_DDOT":0},{"OBJECT_NAME":"KUIPER-00282","OBJECT_ID":"2026-118A","EPOCH":"2026-07-05T23:39:25.135776","CLASSIFICATION_TYPE":"U","MEAN_MOTION":15.33504444,"ECCENTRICITY":0.00116035,"INCLINATION":51.8598,"RA_OF_ASC_NODE":323.1159,"ARG_OF_PERICENTER":263.3464,"MEAN_ANOMALY":96.6201,"EPHEMERIS_TYPE":0,"NORAD_CAT_ID":69267,"ELEMENT_SET_NO":999,"REV_AT_EPOCH":686,"BSTAR":-0.00421402,"MEAN_MOTION_DOT":-0.00136762,"MEAN_MOTION_DDOT":0},{"OBJECT_NAME":"KUIPER-00383","OBJECT_ID":"2026-118B","EPOCH":"2026-07-05T20:21:54.564480","CLASSIFICATION_TYPE":"U","MEAN_MOTION":15.33553839,"ECCENTRICITY":0.00094048,"INCLINATION":51.8611,"RA_OF_ASC_NODE":323.6998,"ARG_OF_PERICENTER":261.512,"MEAN_ANOMALY":98.4799,"EPHEMERIS_TYPE":0,"NORAD_CAT_ID":69268,"ELEMENT_SET_NO":999,"REV_AT_EPOCH":684,"BSTAR":0.0011992986,"MEAN_MOTION_DOT":0.00039367,"MEAN_MOTION_DDOT":0},{"OBJECT_NAME":"KUIPER-00527","OBJECT_ID":"2026-118C","EPOCH":"2026-07-05T20:09:24.679008","CLASSIFICATION_TYPE":"U","MEAN_MOTION":15.34486397,"ECCENTRICITY":0.00097089,"INCLINATION":51.8637,"RA_OF_ASC_NODE":323.6522,"ARG_OF_PERICENTER":249.686,"MEAN_ANOMALY":110.3082,"EPHEMERIS_TYPE":0,"NORAD_CAT_ID":69269,"ELEMENT_SET_NO":999,"REV_AT_EPOCH":684,"BSTAR":0.00069833105,"MEAN_MOTION_DOT":0.00023407,"MEAN_MOTION_DDOT":0},{"OBJECT_NAME":"KUIPER-00562","OBJECT_ID":"2026-118D","EPOCH":"2026-07-05T21:24:53.574336","CLASSIFICATION_TYPE":"U","MEAN_MOTION":15.37923351,"ECCENTRICITY":0.00003027,"INCLINATION":51.8735,"RA_OF_ASC_NODE":322.5465,"ARG_OF_PERICENTER":222.8486,"MEAN_ANOMALY":137.2478,"EPHEMERIS_TYPE":0,"NORAD_CAT_ID":69270,"ELEMENT_SET_NO":999,"REV_AT_EPOCH":686,"BSTAR":0.00079638076,"MEAN_MOTION_DOT":0.0002989,"MEAN_MOTION_DDOT":0},{"OBJECT_NAME":"KUIPER-00570","OBJECT_ID":"2026-118E","EPOCH":"2026-07-06T04:00:01.999584","CLASSIFICATION_TYPE":"U","MEAN_MOTION":15.19177608,"ECCENTRICITY":0.00100717,"INCLINATION":51.8673,"RA_OF_ASC_NODE":322.5131,"ARG_OF_PERICENTER":262.8362,"MEAN_ANOMALY":212.11,"EPHEMERIS_TYPE":0,"NORAD_CAT_ID":69271,"ELEMENT_SET_NO":999,"REV_AT_EPOCH":552,"BSTAR":-0.075829927,"MEAN_MOTION_DOT":-0.01482027,"MEAN_MOTION_DDOT":0}]}
