[
  {
    "name": "KUIPER-00438",
    "noradId": "68940",
    "line1": "1 68940U 26098X   26186.58377553 -.00012288  00000+0 -39446-3 0  9999",
    "line2": "2 68940  51.8751 339.7778 0006688 247.1194 112.9084 15.30852104 10168"
  },
  {
    "name": "KUIPER-00439",
    "noradId": "68941",
    "line1": "1 68941U 26098Y   26186.79816140  .00022254  00000+0  71499-3 0  9999",
    "line2": "2 68941  51.8797 338.9753 0005562 236.1857 123.8599 15.32186966 10190"
  },
  {
    "name": "KUIPER-00440",
    "noradId": "68942",
    "line1": "1 68942U 26098Z   26186.83531798  .00028082  00000+0  91515-3 0  9994",
    "line2": "2 68942  51.8791 338.4872 0003312 253.6805 106.3815 15.31603006 10207"
  },
  {
    "name": "KUIPER-00442",
    "noradId": "68943",
    "line1": "1 68943U 26098AA  26186.61006065  .00023955  00000+0  71622-3 0  9996",
    "line2": "2 68943  51.8800 339.2404 0003772 223.0685 137.0006 15.34440255 10173"
  },
  {
    "name": "KUIPER-00446",
    "noradId": "68944",
    "line1": "1 68944U 26098AB  26187.00876390 -.00057625  00000+0 -18028-2 0  9990",
    "line2": "2 68944  51.8767 337.3830 0005480 207.8587 152.2105 15.32637572 10231"
  },
  {
    "name": "KUIPER-00451",
    "noradId": "68945",
    "line1": "1 68945U 26098AC  26187.25004630 -.00017560  00000+0 -13401-2 0  9992",
    "line2": "2 68945  51.8898 339.7712 0009532 222.7670  31.5573 15.01038284  5742"
  },
  {
    "name": "KUIPER-00452",
    "noradId": "68946",
    "line1": "1 68946U 26098AD  26185.90377321  .00056168  00000+0  15785-2 0  9995",
    "line2": "2 68946  51.8764 341.9960 0002690 219.1737 140.9055 15.35970576 10075"
  },
  {
    "name": "KUIPER-00453",
    "noradId": "68947",
    "line1": "1 68947U 26098AE  26186.58561628  .00066184  00000+0  17818-2 0  9994",
    "line2": "2 68947  51.8756 338.3282 0000888 311.7780  48.3131 15.37233353 10183"
  },
  {
    "name": "KUIPER-00454",
    "noradId": "68948",
    "line1": "1 68948U 26098AF  26187.25004630 -.01745796  00000+0 -15539+0 0  9996",
    "line2": "2 68948  51.8944 340.4930 0012877 206.7800 105.4605 14.99136456  4596"
  },
  {
    "name": "KUIPER-00455",
    "noradId": "68949",
    "line1": "1 68949U 26098AG  26187.25004630 -.00299641  00000+0 -22802-1 0  9992",
    "line2": "2 68949  51.8932 339.9035 0017466 209.2113  72.1419 15.03078426  5140"
  },
  {
    "name": "KUIPER-00458",
    "noradId": "68950",
    "line1": "1 68950U 26098AH  26186.93482769  .00029548  00000+0  81943-3 0  9999",
    "line2": "2 68950  51.8792 336.9232 0002994 253.0069 107.0590 15.36685655 10237"
  },
  {
    "name": "KUIPER-00282",
    "noradId": "69267",
    "line1": "1 69267U 26118A   26186.98570759 -.00136762  00000+0 -42140-2 0  9990",
    "line2": "2 69267  51.8598 323.1159 0011603 263.3464  96.6201 15.33504444  6868"
  },
  {
    "name": "KUIPER-00383",
    "noradId": "69268",
    "line1": "1 69268U 26118B   26186.84854820  .00039367  00000+0  11993-2 0  9993",
    "line2": "2 69268  51.8611 323.6998 0009404 261.5120  98.4799 15.33553839  6848"
  },
  {
    "name": "KUIPER-00527",
    "noradId": "69269",
    "line1": "1 69269U 26118C   26186.83986897  .00023407  00000+0  69833-3 0  9998",
    "line2": "2 69269  51.8637 323.6522 0009708 249.6860 110.3082 15.34486397  6849"
  },
  {
    "name": "KUIPER-00562",
    "noradId": "69270",
    "line1": "1 69270U 26118D   26186.89228674  .00029890  00000+0  79638-3 0  9994",
    "line2": "2 69270  51.8735 322.5465 0000302 222.8486 137.2478 15.37923351  6860"
  },
  {
    "name": "KUIPER-00570",
    "noradId": "69271",
    "line1": "1 69271U 26118E   26187.16668981 -.01482027  00000+0 -75830-1 0  9991",
    "line2": "2 69271  51.8673 322.5131 0010071 262.8362 212.1100 15.19177608  5526"
  }
]